<?xml version="1.0" encoding="UTF-8"?>
<kml xmlns="http://www.opengis.net/kml/2.2">
  <Document>
    <name>TERRITORIO QUILOMBOLA LAGOA GRANDE V1</name>
    <description/>
    <Style id="icon-1603-0288D1-nodesc-normal">
      <IconStyle>
        <color>ffd18802</color>
        <scale>1</scale>
        <Icon>
          <href>https://www.gstatic.com/mapspro/images/stock/503-wht-blank_maps.png</href>
        </Icon>
      </IconStyle>
      <LabelStyle>
        <scale>0</scale>
      </LabelStyle>
      <BalloonStyle>
        <text><![CDATA[<h3>$[name]</h3>]]></text>
      </BalloonStyle>
    </Style>
    <Style id="icon-1603-0288D1-nodesc-highlight">
      <IconStyle>
        <color>ffd18802</color>
        <scale>1</scale>
        <Icon>
          <href>https://www.gstatic.com/mapspro/images/stock/503-wht-blank_maps.png</href>
        </Icon>
      </IconStyle>
      <LabelStyle>
        <scale>1</scale>
      </LabelStyle>
      <BalloonStyle>
        <text><![CDATA[<h3>$[name]</h3>]]></text>
      </BalloonStyle>
    </Style>
    <StyleMap id="icon-1603-0288D1-nodesc">
      <Pair>
        <key>normal</key>
        <styleUrl>#icon-1603-0288D1-nodesc-normal</styleUrl>
      </Pair>
      <Pair>
        <key>highlight</key>
        <styleUrl>#icon-1603-0288D1-nodesc-highlight</styleUrl>
      </Pair>
    </StyleMap>
    <Style id="icon-1899-0288D1-nodesc-normal">
      <IconStyle>
        <color>ffd18802</color>
        <scale>1</scale>
        <Icon>
          <href>https://www.gstatic.com/mapspro/images/stock/503-wht-blank_maps.png</href>
        </Icon>
        <hotSpot x="32" xunits="pixels" y="64" yunits="insetPixels"/>
      </IconStyle>
      <LabelStyle>
        <scale>0</scale>
      </LabelStyle>
      <BalloonStyle>
        <text><![CDATA[<h3>$[name]</h3>]]></text>
      </BalloonStyle>
    </Style>
    <Style id="icon-1899-0288D1-nodesc-highlight">
      <IconStyle>
        <color>ffd18802</color>
        <scale>1</scale>
        <Icon>
          <href>https://www.gstatic.com/mapspro/images/stock/503-wht-blank_maps.png</href>
        </Icon>
        <hotSpot x="32" xunits="pixels" y="64" yunits="insetPixels"/>
      </IconStyle>
      <LabelStyle>
        <scale>1</scale>
      </LabelStyle>
      <BalloonStyle>
        <text><![CDATA[<h3>$[name]</h3>]]></text>
      </BalloonStyle>
    </Style>
    <StyleMap id="icon-1899-0288D1-nodesc">
      <Pair>
        <key>normal</key>
        <styleUrl>#icon-1899-0288D1-nodesc-normal</styleUrl>
      </Pair>
      <Pair>
        <key>highlight</key>
        <styleUrl>#icon-1899-0288D1-nodesc-highlight</styleUrl>
      </Pair>
    </StyleMap>
    <Style id="poly-000000-1200-77-nodesc-normal">
      <LineStyle>
        <color>ff000000</color>
        <width>1.2</width>
      </LineStyle>
      <PolyStyle>
        <color>4d000000</color>
        <fill>1</fill>
        <outline>1</outline>
      </PolyStyle>
      <BalloonStyle>
        <text><![CDATA[<h3>$[name]</h3>]]></text>
      </BalloonStyle>
    </Style>
    <Style id="poly-000000-1200-77-nodesc-highlight">
      <LineStyle>
        <color>ff000000</color>
        <width>1.8</width>
      </LineStyle>
      <PolyStyle>
        <color>4d000000</color>
        <fill>1</fill>
        <outline>1</outline>
      </PolyStyle>
      <BalloonStyle>
        <text><![CDATA[<h3>$[name]</h3>]]></text>
      </BalloonStyle>
    </Style>
    <StyleMap id="poly-000000-1200-77-nodesc">
      <Pair>
        <key>normal</key>
        <styleUrl>#poly-000000-1200-77-nodesc-normal</styleUrl>
      </Pair>
      <Pair>
        <key>highlight</key>
        <styleUrl>#poly-000000-1200-77-nodesc-highlight</styleUrl>
      </Pair>
    </StyleMap>
    <Folder>
      <name>Divisões do Território Quilombola de Lagoa Grande</name>
      <Placemark>
        <name>ESCOLA MUNICIPAL QUILOMBOLA LUIZ PEREIRA DOS SANTOS</name>
        <styleUrl>#icon-1603-0288D1-nodesc</styleUrl>
        <Point>
          <coordinates>
            -38.9894126,-12.1367045,0
          </coordinates>
        </Point>
      </Placemark>
      <Placemark>
        <name>Ponto de Cultura - Movimento Juventude</name>
        <styleUrl>#icon-1899-0288D1-nodesc</styleUrl>
        <Point>
          <coordinates>
            -38.9898594,-12.1366125,0
          </coordinates>
        </Point>
      </Placemark>
      <Placemark>
        <name>Casa de Farinha Comunitaria</name>
        <styleUrl>#icon-1899-0288D1-nodesc</styleUrl>
        <Point>
          <coordinates>
            -38.9885283,-12.1368032,0
          </coordinates>
        </Point>
      </Placemark>
      <Placemark>
        <name>Lagoa Grande</name>
        <styleUrl>#icon-1899-0288D1-nodesc</styleUrl>
        <Point>
          <coordinates>
            -38.9974336,-12.134794,0
          </coordinates>
        </Point>
      </Placemark>
      <Placemark>
        <name>Polígono 12</name>
        <styleUrl>#poly-000000-1200-77-nodesc</styleUrl>
        <Polygon>
          <outerBoundaryIs>
            <LinearRing>
              <tessellate>1</tessellate>
              <coordinates>
                -38.9979271,-12.1355912,0
                -38.997337,-12.1363569,0
                -38.9965323,-12.1373429,0
                -38.9957706,-12.1385911,0
                -38.9952985,-12.1397134,0
                -38.9944188,-12.140993,0
                -38.9937241,-12.1421389,0
                -38.9925721,-12.1431524,0
                -38.9911626,-12.1436624,0
                -38.9922059,-12.141347,0
                -38.9934639,-12.1394721,0
                -38.9941184,-12.1383708,0
                -38.9945904,-12.1375422,0
                -38.9951269,-12.1370912,0
                -38.9956204,-12.1359898,0
                -38.9958993,-12.1351245,0
                -38.996071,-12.1347783,0
                -38.9964143,-12.1340755,0
                -38.9982919,-12.1329217,0
                -38.9988283,-12.1345161,0
                -38.9979271,-12.1355912,0
              </coordinates>
            </LinearRing>
          </outerBoundaryIs>
        </Polygon>
      </Placemark>
      <Placemark>
        <name>Estrada da Lagoa - R.Real</name>
        <styleUrl>#icon-1899-0288D1-nodesc</styleUrl>
        <Point>
          <coordinates>
            -38.9951096,-12.1364723,0
          </coordinates>
        </Point>
      </Placemark>
      <Placemark>
        <name>Quintal Produtivo</name>
        <styleUrl>#icon-1899-0288D1-nodesc</styleUrl>
        <Point>
          <coordinates>
            -38.9911207,-12.1338256,0
          </coordinates>
        </Point>
      </Placemark>
      <Placemark>
        <name>Casa de Farinha e  Quintal Produtivo</name>
        <styleUrl>#icon-1899-0288D1-nodesc</styleUrl>
        <Point>
          <coordinates>
            -38.9916659,-12.1286818,0
          </coordinates>
        </Point>
      </Placemark>
      <Placemark>
        <name>Casa de Farinha e Quintal Produtivo</name>
        <styleUrl>#icon-1899-0288D1-nodesc</styleUrl>
        <Point>
          <coordinates>
            -38.9904151,-12.1285879,0
          </coordinates>
        </Point>
      </Placemark>
      <Placemark>
        <name>AQCOMAQ - Associação Quilombola Comunitária de Maria Quitéria - Comunidade Quilombola de Lagoa Grande</name>
        <styleUrl>#icon-1899-0288D1-nodesc</styleUrl>
        <Point>
          <coordinates>
            -38.9898146,-12.1368249,0
          </coordinates>
        </Point>
      </Placemark>
    </Folder>
    <Folder>
      <name>Camada sem título</name>
    </Folder>
    <Folder>
      <name>Camada sem título</name>
    </Folder>
  </Document>
</kml>
